{
  "type": "FeatureCollection",
  "features": [
    {
      "type": "Feature",
      "properties": {
        "norad_id": 34350,
        "name": "IRIDIUM 33 DEB",
        "group": "iridium-33-debris",
        "lat": -25.127433694864273,
        "lon": 5.624749326063361,
        "alt_km": 761.5818476219538,
        "timestamp": "2025-12-02T06:27:53.396764+00:00",
        "meta_object_name": "IRIDIUM 33 DEB",
        "meta_object_id": "1997-051ES",
        "meta_epoch": "2025-12-01T14:32:17.689056",
        "meta_mean_motion": 14.45345395,
        "meta_eccentricity": 0.00216675,
        "meta_inclination": 86.3284,
        "meta_ra_of_asc_node": 7.6383,
        "meta_arg_of_pericenter": 170.4915,
        "meta_mean_anomaly": 313.6705,
        "meta_ephemeris_type": 0,
        "meta_classification_type": "U",
        "meta_norad_cat_id": 34350,
        "meta_element_set_no": 999,
        "meta_rev_at_epoch": 88132,
        "meta_bstar": 0.00033636786,
        "meta_mean_motion_dot": 1.205e-05,
        "meta_mean_motion_ddot": 0,
        "tle_line1": "1 34350U 97051ES  25335.60576029  .00001205  00000+0  33637-3 0  9992",
        "tle_line2": "2 34350  86.3284   7.6383 0021667 170.4915 313.6705 14.45345395881324"
      },
      "geometry": {
        "type": "Point",
        "coordinates": [
          5.624749326063361,
          -25.127433694864273
        ]
      }
    },
    {
      "type": "Feature",
      "properties": {
        "norad_id": 34366,
        "name": "IRIDIUM 33 DEB",
        "group": "iridium-33-debris",
        "lat": -21.36547188151833,
        "lon": 52.442910614700374,
        "alt_km": 733.1653056782443,
        "timestamp": "2025-12-02T06:27:53.396774+00:00",
        "meta_object_name": "IRIDIUM 33 DEB",
        "meta_object_id": "1997-051FJ",
        "meta_epoch": "2025-12-01T17:56:27.538080",
        "meta_mean_motion": 14.53886332,
        "meta_eccentricity": 0.0021585,
        "meta_inclination": 86.3708,
        "meta_ra_of_asc_node": 54.0924,
        "meta_arg_of_pericenter": 175.1506,
        "meta_mean_anomaly": 314.0066,
        "meta_ephemeris_type": 0,
        "meta_classification_type": "U",
        "meta_norad_cat_id": 34366,
        "meta_element_set_no": 999,
        "meta_rev_at_epoch": 88022,
        "meta_bstar": 0.0012466,
        "meta_mean_motion_dot": 5.277e-05,
        "meta_mean_motion_ddot": 0,
        "tle_line1": "1 34366U 97051FJ  25335.74754095  .00005277  00000+0  12466-2 0  9994",
        "tle_line2": "2 34366  86.3708  54.0924 0021585 175.1506 314.0066 14.53886332880229"
      },
      "geometry": {
        "type": "Point",
        "coordinates": [
          52.442910614700374,
          -21.36547188151833
        ]
      }
    },
    {
      "type": "Feature",
      "properties": {
        "norad_id": 34375,
        "name": "IRIDIUM 33 DEB",
        "group": "iridium-33-debris",
        "lat": 10.725349709788768,
        "lon": 6.2390167242317425,
        "alt_km": 760.9731716353963,
        "timestamp": "2025-12-02T06:27:53.396784+00:00",
        "meta_object_name": "IRIDIUM 33 DEB",
        "meta_object_id": "1997-051FT",
        "meta_epoch": "2025-12-01T14:41:16.632384",
        "meta_mean_motion": 14.17960715,
        "meta_eccentricity": 0.01023163,
        "meta_inclination": 86.4333,
        "meta_ra_of_asc_node": 187.1808,
        "meta_arg_of_pericenter": 161.7951,
        "meta_mean_anomaly": 253.5923,
        "meta_ephemeris_type": 0,
        "meta_classification_type": "U",
        "meta_norad_cat_id": 34375,
        "meta_element_set_no": 999,
        "meta_rev_at_epoch": 86554,
        "meta_bstar": 0.00043425894,
        "meta_mean_motion_dot": 9.54e-06,
        "meta_mean_motion_ddot": 0,
        "tle_line1": "1 34375U 97051FT  25335.61199806  .00000954  00000+0  43426-3 0  9991",
        "tle_line2": "2 34375  86.4333 187.1808 0102316 161.7951 253.5923 14.17960715865545"
      },
      "geometry": {
        "type": "Point",
        "coordinates": [
          6.2390167242317425,
          10.725349709788768
        ]
      }
    },
    {
      "type": "Feature",
      "properties": {
        "norad_id": 34376,
        "name": "IRIDIUM 33 DEB",
        "group": "iridium-33-debris",
        "lat": -52.22430211971006,
        "lon": 6.456852303038236,
        "alt_km": 697.4633061100494,
        "timestamp": "2025-12-02T06:27:53.396794+00:00",
        "meta_object_name": "IRIDIUM 33 DEB",
        "meta_object_id": "1997-051FU",
        "meta_epoch": "2025-12-01T12:38:21.899040",
        "meta_mean_motion": 14.62308083,
        "meta_eccentricity": 0.00258981,
        "meta_inclination": 86.3001,
        "meta_ra_of_asc_node": 11.5798,
        "meta_arg_of_pericenter": 205.1793,
        "meta_mean_anomaly": 154.8158,
        "meta_ephemeris_type": 0,
        "meta_classification_type": "U",
        "meta_norad_cat_id": 34376,
        "meta_element_set_no": 999,
        "meta_rev_at_epoch": 87843,
        "meta_bstar": 0.0014583482,
        "meta_mean_motion_dot": 7.418e-05,
        "meta_mean_motion_ddot": 0,
        "tle_line1": "1 34376U 97051FU  25335.52664235  .00007418  00000+0  14583-2 0  9998",
        "tle_line2": "2 34376  86.3001  11.5798 0025898 205.1793 154.8158 14.62308083878430"
      },
      "geometry": {
        "type": "Point",
        "coordinates": [
          6.456852303038236,
          -52.22430211971006
        ]
      }
    },
    {
      "type": "Feature",
      "properties": {
        "norad_id": 34486,
        "name": "IRIDIUM 33 DEB",
        "group": "iridium-33-debris",
        "lat": 2.6451890138446683,
        "lon": 17.022114758138883,
        "alt_km": 592.1378867514013,
        "timestamp": "2025-12-02T06:27:53.396804+00:00",
        "meta_object_name": "IRIDIUM 33 DEB",
        "meta_object_id": "1997-051GB",
        "meta_epoch": "2025-12-01T03:23:17.162304",
        "meta_mean_motion": 14.94972115,
        "meta_eccentricity": 0.0012576,
        "meta_inclination": 86.3953,
        "meta_ra_of_asc_node": 17.3749,
        "meta_arg_of_pericenter": 150.6995,
        "meta_mean_anomaly": 264.2546,
        "meta_ephemeris_type": 0,
        "meta_classification_type": "U",
        "meta_norad_cat_id": 34486,
        "meta_element_set_no": 999,
        "meta_rev_at_epoch": 88813,
        "meta_bstar": 0.0022992351,
        "meta_mean_motion_dot": 0.00025238,
        "meta_mean_motion_ddot": 0,
        "tle_line1": "1 34486U 97051GB  25335.14117086  .00025238  00000+0  22992-2 0  9998",
        "tle_line2": "2 34486  86.3953  17.3749 0012576 150.6995 264.2546 14.94972115888138"
      },
      "geometry": {
        "type": "Point",
        "coordinates": [
          17.022114758138883,
          2.6451890138446683
        ]
      }
    },
    {
      "type": "Feature",
      "properties": {
        "norad_id": 34487,
        "name": "IRIDIUM 33 DEB",
        "group": "iridium-33-debris",
        "lat": -3.927984548766743,
        "lon": -162.8636344180583,
        "alt_km": 730.5941280434308,
        "timestamp": "2025-12-02T06:27:53.396814+00:00",
        "meta_object_name": "IRIDIUM 33 DEB",
        "meta_object_id": "1997-051GC",
        "meta_epoch": "2025-12-01T15:14:00.920832",
        "meta_mean_motion": 14.43192153,
        "meta_eccentricity": 0.00317068,
        "meta_inclination": 86.3445,
        "meta_ra_of_asc_node": 17.1579,
        "meta_arg_of_pericenter": 163.7221,
        "meta_mean_anomaly": 324.8136,
        "meta_ephemeris_type": 0,
        "meta_classification_type": "U",
        "meta_norad_cat_id": 34487,
        "meta_element_set_no": 999,
        "meta_rev_at_epoch": 88088,
        "meta_bstar": 0.0002149908,
        "meta_mean_motion_dot": 7.47e-06,
        "meta_mean_motion_ddot": 0,
        "tle_line1": "1 34487U 97051GC  25335.63473288  .00000747  00000+0  21499-3 0  9992",
        "tle_line2": "2 34487  86.3445  17.1579 0031706 163.7221 324.8136 14.43192153880889"
      },
      "geometry": {
        "type": "Point",
        "coordinates": [
          -162.8636344180583,
          -3.927984548766743
        ]
      }
    },
    {
      "type": "Feature",
      "properties": {
        "norad_id": 34488,
        "name": "IRIDIUM 33 DEB",
        "group": "iridium-33-debris",
        "lat": -37.54052232491655,
        "lon": 133.81649959608058,
        "alt_km": 504.74010035143147,
        "timestamp": "2025-12-02T06:27:53.396824+00:00",
        "meta_object_name": "IRIDIUM 33 DEB",
        "meta_object_id": "1997-051GD",
        "meta_epoch": "2025-12-01T09:03:02.520864",
        "meta_mean_motion": 15.25513419,
        "meta_eccentricity": 0.00159486,
        "meta_inclination": 86.3247,
        "meta_ra_of_asc_node": 311.4245,
        "meta_arg_of_pericenter": 69.089,
        "meta_mean_anomaly": 291.2062,
        "meta_ephemeris_type": 0,
        "meta_classification_type": "U",
        "meta_norad_cat_id": 34488,
        "meta_element_set_no": 999,
        "meta_rev_at_epoch": 89066,
        "meta_bstar": 0.005113685,
        "meta_mean_motion_dot": 0.00132074,
        "meta_mean_motion_ddot": 0,
        "tle_line1": "1 34488U 97051GD  25335.37711251  .00132074  00000+0  51137-2 0  9999",
        "tle_line2": "2 34488  86.3247 311.4245 0015948  69.0890 291.2062 15.25513419890665"
      },
      "geometry": {
        "type": "Point",
        "coordinates": [
          133.81649959608058,
          -37.54052232491655
        ]
      }
    }
  ]
}